[{"OBJECT_NAME":"UTMN 2 (RS27S)","OBJECT_ID":"2023-091AP","EPOCH":"2026-03-09T23:09:07.917408","MEAN_MOTION":15.29495965,"ECCENTRICITY":0.00097379,"INCLINATION":97.5194,"RA_OF_ASC_NODE":134.949,"ARG_OF_PERICENTER":76.0788,"MEAN_ANOMALY":284.1534,"EPHEMERIS_TYPE":0,"CLASSIFICATION_TYPE":"U","NORAD_CAT_ID":57203,"ELEMENT_SET_NO":999,"REV_AT_EPOCH":14936,"BSTAR":0.00056135701,"MEAN_MOTION_DOT":0.00016013,"MEAN_MOTION_DDOT":0},{"OBJECT_NAME":"STARLINK-34518","OBJECT_ID":"2025-133J","EPOCH":"2026-03-09T12:13:56.342496","MEAN_MOTION":15.30193054,"ECCENTRICITY":0.00012959,"INCLINATION":53.1587,"RA_OF_ASC_NODE":117.4416,"ARG_OF_PERICENTER":94.6877,"MEAN_ANOMALY":265.4271,"EPHEMERIS_TYPE":0,"CLASSIFICATION_TYPE":"U","NORAD_CAT_ID":64480,"ELEMENT_SET_NO":999,"REV_AT_EPOCH":4100,"BSTAR":0.00081004167,"MEAN_MOTION_DOT":0.00023703,"MEAN_MOTION_DDOT":0}]
